[{"OBJECT_NAME":"OBJECT D","OBJECT_ID":"2024-205D","EPOCH":"2026-03-09T22:51:08.688096","MEAN_MOTION":15.16787304,"ECCENTRICITY":0.00131169,"INCLINATION":97.4171,"RA_OF_ASC_NODE":142.544,"ARG_OF_PERICENTER":49.0052,"MEAN_ANOMALY":311.2313,"EPHEMERIS_TYPE":0,"CLASSIFICATION_TYPE":"U","NORAD_CAT_ID":61897,"ELEMENT_SET_NO":999,"REV_AT_EPOCH":7323,"BSTAR":0.00043241464,"MEAN_MOTION_DOT":8.448e-5,"MEAN_MOTION_DDOT":0},{"OBJECT_NAME":"HAWK-12B","OBJECT_ID":"2025-138B","EPOCH":"2026-03-09T22:55:04.503936","MEAN_MOTION":15.17351346,"ECCENTRICITY":0.00148402,"INCLINATION":97.4491,"RA_OF_ASC_NODE":73.6322,"ARG_OF_PERICENTER":119.8702,"MEAN_ANOMALY":240.4008,"EPHEMERIS_TYPE":0,"CLASSIFICATION_TYPE":"U","NORAD_CAT_ID":64622,"ELEMENT_SET_NO":999,"REV_AT_EPOCH":3881,"BSTAR":0.00030366166,"MEAN_MOTION_DOT":6.011e-5,"MEAN_MOTION_DDOT":0}]
